$$SOE
2460721.500000000, A.D. 2025-Feb-15 00:00:00.0000, -3.758570565284207E+08, 1.332067388472014E+08, -7.185144806487314E+06,
2460728.500000000, A.D. 2025-Feb-22 00:00:00.0000, -3.788146538928553E+08, 1.237561960076426E+08, -7.852096875345767E+06,
2460735.500000000, A.D. 2025-Mar-01 00:00:00.0000, -3.814818321502603E+08, 1.142107609205123E+08, -8.513029160244584E+06,
2460742.500000000, A.D. 2025-Mar-08 00:00:00.0000, -3.838559006742237E+08, 1.045775581608381E+08, -9.167420855387170E+06,
2460749.500000000, A.D. 2025-Mar-15 00:00:00.0000, -3.859342526269664E+08, 9.486377790056273E+07, -9.814750812225323E+06,
2460756.500000000, A.D. 2025-Mar-22 00:00:00.0000, -3.877143674205908E+08, 8.507668097824575E+07, -1.045449703693828E+07,
2460763.500000000, A.D. 2025-Mar-29 00:00:00.0000, -3.891938121512290E+08, 7.522360183595034E+07, -1.108613650288391E+07,
2460770.500000000, A.D. 2025-Apr-05 00:00:00.0000, -3.903702416883664E+08, 6.531195245371571E+07, -1.170914505138025E+07,
2460777.500000000, A.D. 2025-Apr-12 00:00:00.0000, -3.912413993609447E+08, 5.534922737700456E+07, -1.232299719677723E+07,
2460784.500000000, A.D. 2025-Apr-19 00:00:00.0000, -3.918051184494036E+08, 4.534300895261627E+07, -1.292716589280401E+07,
2460791.500000000, A.D. 2025-Apr-26 00:00:00.0000, -3.920593242319286E+08, 3.530097257064465E+07, -1.352112230361395E+07,
2460798.500000000, A.D. 2025-May-03 00:00:00.0000, -3.920020364877762E+08, 2.523089193114500E+07, -1.410433558976858E+07,
2460805.500000000, A.D. 2025-May-10 00:00:00.0000, -3.916313724449508E+08, 1.514064434085869E+07, -1.467627271221485E+07,
2460812.500000000, A.D. 2025-May-17 00:00:00.0000, -3.909455501526327E+08, 5.038215993182993E+06, -1.523639826210135E+07,
2460819.500000000, A.D. 2025-May-24 00:00:00.0000, -3.899428921235539E+08, -5.068292830708549E+06, -1.578417433803806E+07,
2460826.500000000, A.D. 2025-May-31 00:00:00.0000, -3.886218288495874E+08, -1.517066233777162E+07, -1.631906048499976E+07,
2460833.500000000, A.D. 2025-Jun-07 00:00:00.0000, -3.869809026141415E+08, -2.526054638220308E+07, -1.684051356104143E+07,
2460840.500000000, A.D. 2025-Jun-14 00:00:00.0000, -3.850187739914277E+08, -3.532946488826303E+07, -1.734798737121034E+07,
2460847.500000000, A.D. 2025-Jun-21 00:00:00.0000, -3.827342298464726E+08, -4.536879882349734E+07, -1.784093244995321E+07,
2460854.500000000, A.D. 2025-Jun-28 00:00:00.0000, -3.801261897394662E+08, -5.536978597238566E+07, -1.831879613691365E+07,
2460861.500000000, A.D. 2025-Jul-05 00:00:00.0000, -3.771937122798632E+08, -6.532351537114802E+07, -1.878102263243400E+07,
2460868.500000000, A.D. 2025-Jul-12 00:00:00.0000, -3.739360026520634E+08, -7.522092123244421E+07, -1.922705299156003E+07,
2460875.500000000, A.D. 2025-Jul-19 00:00:00.0000, -3.703524211598458E+08, -8.505277696235178E+07, -1.965632512409357E+07,
2460882.500000000, A.D. 2025-Jul-26 00:00:00.0000, -3.664424926193317E+08, -9.480968935536011E+07, -2.006827382798387E+07,
2460889.500000000, A.D. 2025-Aug-02 00:00:00.0000, -3.622059165753337E+08, -1.044820929781840E+08, -2.046233086369463E+07,
2460896.500000000, A.D. 2025-Aug-09 00:00:00.0000, -3.576425783588271E+08, -1.140602447943367E+08, -2.083792507650930E+07,
2460903.500000000, A.D. 2025-Aug-16 00:00:00.0000, -3.527525609513462E+08, -1.235342191353960E+08, -2.119448258298717E+07,
2460910.500000000, A.D. 2025-Aug-23 00:00:00.0000, -3.475361574079881E+08, -1.328939030508733E+08, -2.153142705142327E+07,
2460917.500000000, A.D. 2025-Aug-30 00:00:00.0000, -3.419938835552677E+08, -1.421289913771107E+08, -2.184818005282014E+07,
2460924.500000000, A.D. 2025-Sep-06 00:00:00.0000, -3.361264924270709E+08, -1.512289805864790E+08, -2.214416127559958E+07,
2460931.500000000, A.D. 2025-Sep-13 00:00:00.0000, -3.299349921555952E+08, -1.601831639705841E+08, -2.241878865953290E+07,
2460938.500000000, A.D. 2025-Sep-20 00:00:00.0000, -3.234206640935188E+08, -1.689806298820994E+08, -2.267147889023583E+07,
2460945.500000000, A.D. 2025-Sep-27 00:00:00.0000, -3.165850801579193E+08, -1.776102600104527E+08, -2.290164810388165E+07,
2460952.500000000, A.D. 2025-Oct-04 00:00:00.0000, -3.094301214564331E+08, -1.860607272470579E+08, -2.310871257980452E+07,
2460959.500000000, A.D. 2025-Oct-11 00:00:00.0000, -3.019579986088622E+08, -1.943204941908645E+08, -2.329208947123431E+07,
2460966.500000000, A.D. 2025-Oct-18 00:00:00.0000, -2.941712735188121E+08, -2.023778126911197E+08, -2.345119763140392E+07,
2460973.500000000, A.D. 2025-Oct-25 00:00:00.0000, -2.860728824924662E+08, -2.102207245520244E+08, -2.358545855671328E+07,
2460980.500000000, A.D. 2025-Nov-01 00:00:00.0000, -2.776661606965227E+08, -2.178370635321220E+08, -2.369429745956554E+07,
2460987.500000000, A.D. 2025-Nov-08 00:00:00.0000, -2.689548679443348E+08, -2.252144588324040E+08, -2.377714448738147E+07,
2460994.500000000, A.D. 2025-Nov-15 00:00:00.0000, -2.599432156769593E+08, -2.323403403096753E+08, -2.383343611752506E+07,
2461001.500000000, A.D. 2025-Nov-22 00:00:00.0000, -2.506358947401712E+08, -2.392019453879353E+08, -2.386261675880602E+07,
2461008.500000000, A.D. 2025-Nov-29 00:00:00.0000, -2.410381040993069E+08, -2.457863267388041E+08, -2.386414046411705E+07,
2461015.500000000, A.D. 2025-Dec-06 00:00:00.0000, -2.311555827361732E+08, -2.520803610864620E+08, -2.383747256700520E+07,
2461022.500000000, A.D. 2025-Dec-13 00:00:00.0000, -2.209946442355646E+08, -2.580707627463423E+08, -2.378209156796697E+07,
2461029.500000000, A.D. 2025-Dec-20 00:00:00.0000, -2.105622104857738E+08, -2.637441011382385E+08, -2.369749151905495E+07,
2461036.500000000, A.D. 2025-Dec-27 00:00:00.0000, -1.998658454611914E+08, -2.690868199682859E+08, -2.358318460963143E+07,
2461043.500000000, A.D. 2026-Jan-03 00:00:00.0000, -1.889137904138696E+08, -2.740852589966534E+08, -2.343870388317604E+07,
2461050.500000000, A.D. 2026-Jan-10 00:00:00.0000, -1.777150001974571E+08, -2.787256793806683E+08, -2.326360616300088E+07,
2461057.500000000, A.D. 2026-Jan-17 00:00:00.0000, -1.662791802796344E+08, -2.829942930035799E+08, -2.305747522616600E+07,
2461064.500000000, A.D. 2026-Jan-24 00:00:00.0000, -1.546168241036657E+08, -2.868772960931991E+08, -2.281992523959245E+07,
2461071.500000000, A.D. 2026-Jan-31 00:00:00.0000, -1.427392504605081E+08, -2.903609074691913E+08, -2.255060446767965E+07,
2461078.500000000, A.D. 2026-Feb-07 00:00:00.0000, -1.306586404353936E+08, -2.934314118054538E+08, -2.224919926555067E+07,
2461085.500000000, A.D. 2026-Feb-14 00:00:00.0000, -1.183880732357126E+08, -2.960752082431170E+08, -2.191543838307366E+07,
2461092.500000000, A.D. 2026-Feb-21 00:00:00.0000, -1.059415600023580E+08, -2.982788640807016E+08, -2.154909756508222E+07,
2461099.500000000, A.D. 2026-Feb-28 00:00:00.0000, -9.333407610451126E+07, -3.000291726636705E+08, -2.115000424652578E+07,
2461106.500000000, A.D. 2026-Mar-07 00:00:00.0000, -8.058159331182063E+07, -3.013132176586900E+08, -2.071804230028498E+07,
2461113.500000000, A.D. 2026-Mar-14 00:00:00.0000, -6.770110832197350E+07, -3.021184462307518E+08, -2.025315726431431E+07,
2461120.500000000, A.D. 2026-Mar-21 00:00:00.0000, -5.471066503513244E+07, -3.024327483461292E+08, -1.975536194924352E+07,
2461127.500000000, A.D. 2026-Mar-28 00:00:00.0000, -4.162937168023173E+07, -3.022445412065589E+08, -1.922474212392685E+07,
2461134.500000000, A.D. 2026-Apr-04 00:00:00.0000, -2.847741241641399E+07, -3.015428597077478E+08, -1.866146225893335E+07,
2461141.500000000, A.D. 2026-Apr-11 00:00:00.0000, -1.527605208771696E+07, -3.003174530835652E+08, -1.806577132880640E+07,
2461148.500000000, A.D. 2026-Apr-18 00:00:00.0000, -2.047632867690745E+06, -2.985588873956219E+08, -1.743800862372723E+07,
2461155.500000000, A.D. 2026-Apr-25 00:00:00.0000, 1.118443839767549E+07, -2.962586533379939E+08, -1.677860949816193E+07,
2461162.500000000, A.D. 2026-May-02 00:00:00.0000, 2.439571334479824E+07, -2.934092786870008E+08, -1.608811097529653E+07,
2461169.500000000, A.D. 2026-May-09 00:00:00.0000, 3.756073702323267E+07, -2.900044445608140E+08, -1.536715712602982E+07,
2461176.500000000, A.D. 2026-May-16 00:00:00.0000, 5.065309608747289E+07, -2.860391042274132E+08, -1.461650413615793E+07,
2461183.500000000, A.D. 2026-May-23 00:00:00.0000, 6.364548132564328E+07, -2.815096020805147E+08, -1.383702486279985E+07,
2461190.500000000, A.D. 2026-May-30 00:00:00.0000, 7.650976334365940E+07, -2.764137908657759E+08, -1.302971253453220E+07,
2461197.500000000, A.D. 2026-Jun-06 00:00:00.0000, 8.921708180997567E+07, -2.707511485956775E+08, -1.219568369870509E+07,
2461204.500000000, A.D. 2026-Jun-13 00:00:00.0000, 1.017379524243128E+08, -2.645228929019510E+08, -1.133618059778966E+07,
2461211.500000000, A.D. 2026-Jun-20 00:00:00.0000, 1.140423913255106E+08, -2.577320876578533E+08, -1.045257255142346E+07,
2461218.500000000, A.D. 2026-Jun-27 00:00:00.0000, 1.261000551213372E+08, -2.503837398104507E+08, -9.546356081768930E+06,
2461225.500000000, A.D. 2026-Jul-04 00:00:00.0000, 1.378803960398835E+08, -2.424848846892198E+08, -8.619153719978988E+06,
2461232.500000000, A.D. 2026-Jul-11 00:00:00.0000, 1.493528315341977E+08, -2.340446573712445E+08, -7.672711416379988E+06,
2461239.500000000, A.D. 2026-Jul-18 00:00:00.0000, 1.604869270565754E+08, -2.250743475593254E+08, -6.708894468700483E+06,
2461246.500000000, A.D. 2026-Jul-25 00:00:00.0000, 1.712525901772673E+08, -2.155874355693631E+08, -5.729681903255656E+06,
2461253.500000000, A.D. 2026-Aug-01 00:00:00.0000, 1.816202737747100E+08, -2.055996072782630E+08, -4.737159281058013E+06,
2461260.500000000, A.D. 2026-Aug-08 00:00:00.0000, 1.915611857513646E+08, -1.951287461718868E+08, -3.733509950386003E+06,
2461267.500000000, A.D. 2026-Aug-15 00:00:00.0000, 2.010475025408105E+08, -1.841949005522765E+08, -2.721004784289196E+06,
2461274.500000000, A.D. 2026-Aug-22 00:00:00.0000, 2.100525821717390E+08, -1.728202236891458E+08, -1.701990312644593E+06,
2461281.500000000, A.D. 2026-Aug-29 00:00:00.0000, 2.185511708927687E+08, -1.610288878625706E+08, -6.788752749153152E+05,
$$EOE